GSAT0223-PRN-E34
1 49809U 21116A   23122.22945688 -.00000085  00000+0  00000+0 0  9997
2 49809  57.2564  12.4717 0000521  97.1107  98.3351  1.70475690  8710
